ATLAS CENTAUR R/B       
1 06155U 72065B   26001.32491843  .00002373  00000+0  32763-3 0  9998
2 06155  35.0029 340.4695 0033689 164.6858 195.4869 14.77470673831297
SL-8 R/B                
1 08459U 75112B   26001.58610155  .00000613  00000+0  21028-3 0  9997
2 08459  74.0605 142.3532 0016731 251.8768 108.0564 14.38161400622221
SL-3 R/B                
1 10114U 77057B   26001.59799369  .00019839  00000+0  44380-3 0  9990
2 10114  97.5684 170.7075 0007778 156.8170 203.3429 15.43492576657975
SEASAT 1                
1 10967U 78064A   26001.60509000  .00000931  00000+0  29869-3 0  9996
2 10967 108.0142 344.7141 0001248 260.8210  99.2794 14.46088080496816
SL-14 R/B               
1 11267U 79011B   26001.50824475  .00001276  00000+0  12390-3 0  9992
2 11267  82.5243 160.2954 0014671 283.3866  76.5718 14.91800967518761
SL-8 R/B                
1 11574U 79089B   26001.60453089  .00000441  00000+0  14151-3 0  9998
2 11574  74.0672 215.2134 0014933  41.6424 318.5867 14.42297254426432
SL-14 R/B               
1 11672U 80005B   26001.47720103  .00001188  00000+0  11794-3 0  9995
2 11672  82.5139  10.9777 0016610  32.6981 327.5263 14.90820285466475
SL-8 R/B                
1 12139U 81003B   26001.45367941  .00029591  00000+0  78163-3 0  9999
2 12139  82.9362 352.0630 0275985  52.6412 309.9610 15.07771488304534
SL-3 R/B                
1 12465U 81046B   26001.57932597  .00018249  00000+0  45244-3 0  9998
2 12465  81.2316  10.1950 0017960 250.8797 109.0501 15.40087723428094
SL-3 R/B                
1 12904U 81103B   26001.60190967  .00010758  00000+0  48969-3 0  9995
2 12904  81.1606 292.0889 0013523 145.1780 215.0339 15.20509052963031
SL-3 R/B                
1 13068U 82013B   26001.64027223  .00006985  00000+0  30890-3 0  9997
2 13068  81.1743 239.3138 0023705  47.0751 313.2464 15.21287106394152
SL-3 R/B                
1 13154U 82039B   26001.59077094  .00005490  00000+0  33622-3 0  9992
2 13154  81.1703 293.2567 0029548 184.8813 175.2129 15.09662038371515
