CCSDS_OMM_VERS = 2.0
CREATION_DATE  = 
ORIGINATOR     = 

OBJECT_NAME    = ATLAS CENTAUR R/B
OBJECT_ID      = 1972-065B
CENTER_NAME    = EARTH
REF_FRAME      = TEME
TIME_SYSTEM    = UTC
MEAN_ELEMENT_THEORY = SGP/SGP4

EPOCH          = 2026-01-01T07:47:52.952352
MEAN_MOTION    = 14.77470673
ECCENTRICITY   = .0033689
INCLINATION    = 35.0029
RA_OF_ASC_NODE = 340.4695
ARG_OF_PERICENTER = 164.6858
MEAN_ANOMALY   = 195.4869

EPHEMERIS_TYPE = 0
CLASSIFICATION_TYPE = U
NORAD_CAT_ID   = 6155
ELEMENT_SET_NO = 999
REV_AT_EPOCH   = 83129
BSTAR          = .32762514E-3
MEAN_MOTION_DOT = .2373E-4
MEAN_MOTION_DDOT = 0

CCSDS_OMM_VERS = 2.0
CREATION_DATE  = 
ORIGINATOR     = 

OBJECT_NAME    = SL-8 R/B
OBJECT_ID      = 1975-112B
CENTER_NAME    = EARTH
REF_FRAME      = TEME
TIME_SYSTEM    = UTC
MEAN_ELEMENT_THEORY = SGP/SGP4

EPOCH          = 2026-01-01T14:03:59.173920
MEAN_MOTION    = 14.38161400
ECCENTRICITY   = .00167319
INCLINATION    = 74.0605
RA_OF_ASC_NODE = 142.3532
ARG_OF_PERICENTER = 251.8768
MEAN_ANOMALY   = 108.0564

EPHEMERIS_TYPE = 0
CLASSIFICATION_TYPE = U
NORAD_CAT_ID   = 8459
ELEMENT_SET_NO = 999
REV_AT_EPOCH   = 62222
BSTAR          = .210281E-3
MEAN_MOTION_DOT = .613E-5
MEAN_MOTION_DDOT = 0

CCSDS_OMM_VERS = 2.0
CREATION_DATE  = 
ORIGINATOR     = 

OBJECT_NAME    = SL-3 R/B
OBJECT_ID      = 1977-057B
CENTER_NAME    = EARTH
REF_FRAME      = TEME
TIME_SYSTEM    = UTC
MEAN_ELEMENT_THEORY = SGP/SGP4

EPOCH          = 2026-01-01T14:21:06.654816
MEAN_MOTION    = 15.43492576
ECCENTRICITY   = .00077783
INCLINATION    = 97.5684
RA_OF_ASC_NODE = 170.7075
ARG_OF_PERICENTER = 156.8170
MEAN_ANOMALY   = 203.3429

EPHEMERIS_TYPE = 0
CLASSIFICATION_TYPE = U
NORAD_CAT_ID   = 10114
ELEMENT_SET_NO = 999
REV_AT_EPOCH   = 65797
BSTAR          = .44379742E-3
MEAN_MOTION_DOT = .19839E-3
MEAN_MOTION_DDOT = 0

CCSDS_OMM_VERS = 2.0
CREATION_DATE  = 
ORIGINATOR     = 

OBJECT_NAME    = SEASAT 1
OBJECT_ID      = 1978-064A
CENTER_NAME    = EARTH
REF_FRAME      = TEME
TIME_SYSTEM    = UTC
MEAN_ELEMENT_THEORY = SGP/SGP4

EPOCH          = 2026-01-01T14:31:19.776000
MEAN_MOTION    = 14.46088080
ECCENTRICITY   = .00012487
INCLINATION    = 108.0142
RA_OF_ASC_NODE = 344.7141
ARG_OF_PERICENTER = 260.8210
MEAN_ANOMALY   = 99.2794

EPHEMERIS_TYPE = 0
CLASSIFICATION_TYPE = U
NORAD_CAT_ID   = 10967
ELEMENT_SET_NO = 999
REV_AT_EPOCH   = 49681
BSTAR          = .2986916E-3
MEAN_MOTION_DOT = .931E-5
MEAN_MOTION_DDOT = 0

CCSDS_OMM_VERS = 2.0
CREATION_DATE  = 
ORIGINATOR     = 

OBJECT_NAME    = SL-14 R/B
OBJECT_ID      = 1979-011B
CENTER_NAME    = EARTH
REF_FRAME      = TEME
TIME_SYSTEM    = UTC
MEAN_ELEMENT_THEORY = SGP/SGP4

EPOCH          = 2026-01-01T12:11:52.346400
MEAN_MOTION    = 14.91800967
ECCENTRICITY   = .00146719
INCLINATION    = 82.5243
RA_OF_ASC_NODE = 160.2954
ARG_OF_PERICENTER = 283.3866
MEAN_ANOMALY   = 76.5718

EPHEMERIS_TYPE = 0
CLASSIFICATION_TYPE = U
NORAD_CAT_ID   = 11267
ELEMENT_SET_NO = 999
REV_AT_EPOCH   = 51876
BSTAR          = .12390346E-3
MEAN_MOTION_DOT = .1276E-4
MEAN_MOTION_DDOT = 0

CCSDS_OMM_VERS = 2.0
CREATION_DATE  = 
ORIGINATOR     = 

OBJECT_NAME    = SL-8 R/B
OBJECT_ID      = 1979-089B
CENTER_NAME    = EARTH
REF_FRAME      = TEME
TIME_SYSTEM    = UTC
MEAN_ELEMENT_THEORY = SGP/SGP4

EPOCH          = 2026-01-01T14:30:31.468896
MEAN_MOTION    = 14.42297254
ECCENTRICITY   = .00149336
INCLINATION    = 74.0672
RA_OF_ASC_NODE = 215.2134
ARG_OF_PERICENTER = 41.6424
MEAN_ANOMALY   = 318.5867

EPHEMERIS_TYPE = 0
CLASSIFICATION_TYPE = U
NORAD_CAT_ID   = 11574
ELEMENT_SET_NO = 999
REV_AT_EPOCH   = 42643
BSTAR          = .14150827E-3
MEAN_MOTION_DOT = .441E-5
MEAN_MOTION_DDOT = 0

CCSDS_OMM_VERS = 2.0
CREATION_DATE  = 
ORIGINATOR     = 

OBJECT_NAME    = SL-14 R/B
OBJECT_ID      = 1980-005B
CENTER_NAME    = EARTH
REF_FRAME      = TEME
TIME_SYSTEM    = UTC
MEAN_ELEMENT_THEORY = SGP/SGP4

EPOCH          = 2026-01-01T11:27:10.168992
MEAN_MOTION    = 14.90820285
ECCENTRICITY   = .00166101
INCLINATION    = 82.5139
RA_OF_ASC_NODE = 10.9777
ARG_OF_PERICENTER = 32.6981
MEAN_ANOMALY   = 327.5263

EPHEMERIS_TYPE = 0
CLASSIFICATION_TYPE = U
NORAD_CAT_ID   = 11672
ELEMENT_SET_NO = 999
REV_AT_EPOCH   = 46647
BSTAR          = .11793898E-3
MEAN_MOTION_DOT = .1188E-4
MEAN_MOTION_DDOT = 0

CCSDS_OMM_VERS = 2.0
CREATION_DATE  = 
ORIGINATOR     = 

OBJECT_NAME    = SL-8 R/B
OBJECT_ID      = 1981-003B
CENTER_NAME    = EARTH
REF_FRAME      = TEME
TIME_SYSTEM    = UTC
MEAN_ELEMENT_THEORY = SGP/SGP4

EPOCH          = 2026-01-01T10:53:17.901024
MEAN_MOTION    = 15.07771488
ECCENTRICITY   = .02759854
INCLINATION    = 82.9362
RA_OF_ASC_NODE = 352.0630
ARG_OF_PERICENTER = 52.6412
MEAN_ANOMALY   = 309.9610

EPHEMERIS_TYPE = 0
CLASSIFICATION_TYPE = U
NORAD_CAT_ID   = 12139
ELEMENT_SET_NO = 999
REV_AT_EPOCH   = 30453
BSTAR          = .78163191E-3
MEAN_MOTION_DOT = .29591E-3
MEAN_MOTION_DDOT = 0

CCSDS_OMM_VERS = 2.0
CREATION_DATE  = 
ORIGINATOR     = 

OBJECT_NAME    = SL-3 R/B
OBJECT_ID      = 1981-046B
CENTER_NAME    = EARTH
REF_FRAME      = TEME
TIME_SYSTEM    = UTC
MEAN_ELEMENT_THEORY = SGP/SGP4

EPOCH          = 2026-01-01T13:54:13.763808
MEAN_MOTION    = 15.40087723
ECCENTRICITY   = .00179604
INCLINATION    = 81.2316
RA_OF_ASC_NODE = 10.1950
ARG_OF_PERICENTER = 250.8797
MEAN_ANOMALY   = 109.0501

EPHEMERIS_TYPE = 0
CLASSIFICATION_TYPE = U
NORAD_CAT_ID   = 12465
ELEMENT_SET_NO = 999
REV_AT_EPOCH   = 42809
BSTAR          = .45243505E-3
MEAN_MOTION_DOT = .18249E-3
MEAN_MOTION_DDOT = 0

CCSDS_OMM_VERS = 2.0
CREATION_DATE  = 
ORIGINATOR     = 

OBJECT_NAME    = SL-3 R/B
OBJECT_ID      = 1981-103B
CENTER_NAME    = EARTH
REF_FRAME      = TEME
TIME_SYSTEM    = UTC
MEAN_ELEMENT_THEORY = SGP/SGP4

EPOCH          = 2026-01-01T14:26:44.995488
MEAN_MOTION    = 15.20509052
ECCENTRICITY   = .00135232
INCLINATION    = 81.1606
RA_OF_ASC_NODE = 292.0889
ARG_OF_PERICENTER = 145.1780
MEAN_ANOMALY   = 215.0339

EPHEMERIS_TYPE = 0
CLASSIFICATION_TYPE = U
NORAD_CAT_ID   = 12904
ELEMENT_SET_NO = 999
REV_AT_EPOCH   = 96303
BSTAR          = .48969283E-3
MEAN_MOTION_DOT = .10758E-3
MEAN_MOTION_DDOT = 0

CCSDS_OMM_VERS = 2.0
CREATION_DATE  = 
ORIGINATOR     = 

OBJECT_NAME    = SL-3 R/B
OBJECT_ID      = 1982-013B
CENTER_NAME    = EARTH
REF_FRAME      = TEME
TIME_SYSTEM    = UTC
MEAN_ELEMENT_THEORY = SGP/SGP4

EPOCH          = 2026-01-01T15:21:59.520672
MEAN_MOTION    = 15.21287106
ECCENTRICITY   = .0023705
INCLINATION    = 81.1743
RA_OF_ASC_NODE = 239.3138
ARG_OF_PERICENTER = 47.0751
MEAN_ANOMALY   = 313.2464

EPHEMERIS_TYPE = 0
CLASSIFICATION_TYPE = U
NORAD_CAT_ID   = 13068
ELEMENT_SET_NO = 999
REV_AT_EPOCH   = 39415
BSTAR          = .30889758E-3
MEAN_MOTION_DOT = .6985E-4
MEAN_MOTION_DDOT = 0

CCSDS_OMM_VERS = 2.0
CREATION_DATE  = 
ORIGINATOR     = 

OBJECT_NAME    = SL-3 R/B
OBJECT_ID      = 1982-039B
CENTER_NAME    = EARTH
REF_FRAME      = TEME
TIME_SYSTEM    = UTC
MEAN_ELEMENT_THEORY = SGP/SGP4

EPOCH          = 2026-01-01T14:10:42.609216
MEAN_MOTION    = 15.09662038
ECCENTRICITY   = .00295484
INCLINATION    = 81.1703
RA_OF_ASC_NODE = 293.2567
ARG_OF_PERICENTER = 184.8813
MEAN_ANOMALY   = 175.2129

EPHEMERIS_TYPE = 0
CLASSIFICATION_TYPE = U
NORAD_CAT_ID   = 13154
ELEMENT_SET_NO = 999
REV_AT_EPOCH   = 37151
BSTAR          = .33622091E-3
MEAN_MOTION_DOT = .549E-4
MEAN_MOTION_DDOT = 0

